NORAD_CAT_ID,OBJECT_NAME,OBJECT_TYPE,EPOCH,MEAN_MOTION,ECCENTRICITY,INCLINATION,RA_OF_ASC_NODE,ARG_OF_PERICENTER,MEAN_ANOMALY,BSTAR,MEAN_MOTION_DOT,MEAN_MOTION_DDOT,TLE_LINE0,TLE_LINE1,TLE_LINE2,SEMIMAJOR_AXIS,PERIOD,APOGEE,PERIGEE,DECAYED
54102.0,STARLINK-5179,PAYLOAD,2022-11-17 06:00:00,15.73209745,0.000342,53.2154,11.0806,10.2972,245.2126,0.00020593,0.00028395,0.0,0 STARLINK-5179,1 54102U 22136BD  22321.25001157  .00028395  00000-0  20593-3 0  9996,2 54102  53.2154  11.0806 0003420  10.2972 245.2126 15.73209745  4841,6727.8669999999975,91.533,352.033,347.431,0.0
54102.0,STARLINK-5179,PAYLOAD,2022-11-17 14:00:01,15.73230157,0.0003673,53.2149,9.4328,8.7464,335.7149,-0.00013808,-0.00019989,0.0,0 STARLINK-5179,1 54102U 22136BD  22321.58334491 -.00019989  00000-0 -13808-3 0  9994,2 54102  53.2149   9.4328 0003673   8.7464 335.7149 15.73230157  1302,6727.809,91.531,352.145,347.20300000000015,0.0
54102.0,STARLINK-5179,PAYLOAD,2022-11-17 22:00:00,15.7321643,0.0003424,53.2148,7.7813,6.6454,66.738,-1.2415e-05,-2.368e-05,0.0,0 STARLINK-5179,1 54102U 22136BD  22321.91667824 -.00002368  00000-0 -12415-4 0  9997,2 54102  53.2148   7.7813 0003424   6.6454  66.7380 15.73216430  4951,6727.848000000001,91.532,352.017,347.41,0.0
54102.0,STARLINK-5179,PAYLOAD,2022-11-18 14:00:01,15.73211972,0.0003709,53.2151,4.4842,4.791,246.4728,0.00028821,0.00040052,0.0,0 STARLINK-5179,1 54102U 22136BD  22322.58334491  .00040052  00000-0  28821-3 0  9999,2 54102  53.2151   4.4842 0003709   4.7910 246.4728 15.73211972  1308,6727.861,91.532,352.221,347.231,0.0
54102.0,STARLINK-5179,PAYLOAD,2022-11-18 22:00:00,15.73202423,0.0003545,53.2153,2.8326,5.7411,334.4968,2.4432e-05,2.808e-05,0.0,0 STARLINK-5179,1 54102U 22136BD  22322.91667824  .00002808  00000-0  24432-4 0  9997,2 54102  53.2153   2.8326 0003545   5.7411 334.4968 15.73202423  1309,6727.888000000001,91.533,352.13800000000015,347.36800000000005,0.0
54102.0,STARLINK-5179,PAYLOAD,2022-11-19 08:00:01,15.73185508,0.0003786,53.2151,0.7718,10.2845,171.1367,0.00023353,0.00032268,0.0,0 STARLINK-5179,1 54102U 22136BD  22323.33334491  .00032268  00000-0  23353-3 0  9998,2 54102  53.2151   0.7718 0003786  10.2845 171.1367 15.73185508  5170,6727.936,91.534,352.349,347.254,0.0
54102.0,STARLINK-5179,PAYLOAD,2022-11-19 14:00:01,15.73137644,0.0003893,53.2146,359.5354,8.0236,150.1081,0.00065506,0.00092107,0.0,0 STARLINK-5179,1 54102U 22136BD  22323.58334491  .00092107  00000-0  65506-3 0  9999,2 54102  53.2146 359.5354 0003893   8.0236 150.1081 15.73137644  1302,6728.073,91.537,352.557,347.319,0.0
54102.0,STARLINK-5179,PAYLOAD,2022-11-19 22:00:00,15.73182194,0.0003631,53.2146,357.8839,7.9215,239.1075,0.00040805,0.00057007,0.0,0 STARLINK-5179,1 54102U 22136BD  22323.91667824  .00057007  00000-0  40805-3 0  9990,2 54102  53.2146 357.8839 0003631   7.9215 239.1075 15.73182194  1307,6727.946,91.534,352.254,347.36800000000005,0.0
54102.0,STARLINK-5179,PAYLOAD,2022-11-20 14:00:01,15.73202607,0.0003936,53.2146,354.5868,5.9029,58.9977,0.00031071,0.00043228,0.0,0 STARLINK-5179,1 54102U 22136BD  22324.58334491  .00043228  00000-0  31071-3 0  9990,2 54102  53.2146 354.5868 0003936   5.9029  58.9977 15.73202607  5373,6727.888000000001,91.533,352.401,347.105,0.0
54102.0,STARLINK-5179,PAYLOAD,2022-11-20 22:00:00,15.73205194,0.0003685,53.2149,352.9351,2.9625,150.9012,-0.0005179,-0.0007273,0.0,0 STARLINK-5179,1 54102U 22136BD  22324.91667824 -.00072730  00000-0 -51790-3 0  9998,2 54102  53.2149 352.9351 0003685   2.9625 150.9012 15.73205194  1301,6727.88,91.533,352.225,347.266,0.0
54102.0,STARLINK-5179,PAYLOAD,2022-11-21 08:00:01,15.73165028,0.000391,53.2146,350.8746,3.7205,351.2764,0.0002144,0.00029538,0.0,0 STARLINK-5179,1 54102U 22136BD  22325.33334491  .00029538  00000-0  21440-3 0  9991,2 54102  53.2146 350.8746 0003910   3.7205 351.2764 15.73165028  5492,6727.995,91.535,352.491,347.22900000000016,0.0
54102.0,STARLINK-5179,PAYLOAD,2022-11-21 14:00:01,15.73138391,0.0004193,53.2141,349.6381,4.0482,327.5873,0.00055908,0.00078399,0.0,0 STARLINK-5179,1 54102U 22136BD  22325.58334491  .00078399  00000-0  55908-3 0  9993,2 54102  53.2141 349.6381 0004193   4.0482 327.5873 15.73138391  1309,6728.071,91.537,352.75699999999995,347.115,0.0
54102.0,STARLINK-5179,PAYLOAD,2022-11-21 22:00:00,15.73158768,0.0003869,53.214,347.9865,5.5468,54.9828,0.00066601,0.0009376,0.0,0 STARLINK-5179,1 54102U 22136BD  22325.91667824  .00093760  00000-0  66601-3 0  9990,2 54102  53.2140 347.9865 0003869   5.5468  54.9828 15.73158768  1306,6728.013000000001,91.536,352.481,347.275,0.0
54102.0,STARLINK-5179,PAYLOAD,2022-11-22 06:00:02,15.73248951,0.0003988,53.2142,346.3381,6.1986,143.3096,-0.00016246,-0.0002342,0.0,0 STARLINK-5179,1 54102U 22136BD  22326.25002315 -.00023420  00000-0 -16246-3 0  9994,2 54102  53.2142 346.3381 0003988   6.1986 143.3096 15.73248951  5632,6727.755999999999,91.53,352.30400000000014,346.93800000000016,0.0
54102.0,STARLINK-5179,PAYLOAD,2022-11-22 14:00:01,15.73228654,0.0004147,53.214,344.689,3.3861,235.107,-0.00016911,-0.00024331,0.0,0 STARLINK-5179,1 54102U 22136BD  22326.58335648 -.00024331  00000-0 -16911-3 0  9999,2 54102  53.2140 344.6890 0004147   3.3861 235.1070 15.73228654  1305,6727.813,91.532,352.469,346.88800000000015,0.0
54102.0,STARLINK-5179,PAYLOAD,2022-11-22 22:00:00,15.73157907,0.0003944,53.2143,343.0372,2.46,324.9392,0.00048788,0.00068307,0.0,0 STARLINK-5179,1 54102U 22136BD  22326.91667824  .00068307  00000-0  48788-3 0  9996,2 54102  53.2143 343.0372 0003944   2.4600 324.9392 15.73157907  1307,6728.015,91.536,352.534,347.227,0.0
54102.0,STARLINK-5179,PAYLOAD,2022-11-23 08:00:01,15.73179392,0.0004224,53.2142,340.9769,2.4138,166.1383,-4.0365e-05,-6.284e-05,0.0,0 STARLINK-5179,1 54102U 22136BD  22327.33334491 -.00006284  00000-0 -40365-4 0  9996,2 54102  53.2142 340.9769 0004224   2.4138 166.1383 15.73179392  5807,6727.954000000002,91.534,352.661,346.977,0.0
54102.0,STARLINK-5179,PAYLOAD,2022-11-23 14:00:01,15.73177095,0.0004269,53.2137,339.7398,2.091,143.1334,0.00030306,0.00042099,0.0,0 STARLINK-5179,1 54102U 22136BD  22327.58334491  .00042099  00000-0  30306-3 0  9998,2 54102  53.2137 339.7398 0004269   2.0910 143.1334 15.73177095  1308,6727.96,91.535,352.6980000000001,346.95300000000015,0.0
54102.0,STARLINK-5179,PAYLOAD,2022-11-23 22:00:00,15.73200287,0.0003982,53.2137,338.0882,4.0298,230.1216,0.00039212,0.00054789,0.0,0 STARLINK-5179,1 54102U 22136BD  22327.91667824  .00054789  00000-0  39212-3 0  9998,2 54102  53.2137 338.0882 0003982   4.0298 230.1216 15.73200287  1306,6727.894,91.533,352.43800000000016,347.08,0.0
54102.0,STARLINK-5179,PAYLOAD,2022-11-24 00:00:00,15.73231911,0.0003982,53.2139,337.6757,5.4262,340.9533,-1.7767e-05,-3.122e-05,0.0,0 STARLINK-5179,1 54102U 22136BD  22328.00001157 -.00003122  00000-0 -17767-4 0  9999,2 54102  53.2139 337.6757 0003982   5.4262 340.9533 15.73231911  5911,6727.804,91.531,352.348,346.99,0.0
54102.0,STARLINK-5179,PAYLOAD,2022-11-24 14:00:01,15.73213985,0.000433,53.2139,334.7905,8.4982,43.5379,0.00025921,0.00035949,0.0,0 STARLINK-5179,1 54102U 22136BD  22328.58334491  .00035949  00000-0  25921-3 0  9992,2 54102  53.2139 334.7905 0004330   8.4982  43.5379 15.73213985  1308,6727.855,91.532,352.6330000000001,346.807,0.0
54102.0,STARLINK-5179,PAYLOAD,2022-11-24 22:00:00,15.73242242,0.0004058,53.2142,333.1388,8.505,132.5,-0.00021037,-0.00030112,0.0,0 STARLINK-5179,1 54102U 22136BD  22328.91667824 -.00030112  00000-0 -21037-3 0  9991,2 54102  53.2142 333.1388 0004058   8.5050 132.5000 15.73242242  1302,6727.775,91.531,352.37,346.91,0.0
54102.0,STARLINK-5179,PAYLOAD,2022-11-25 08:00:01,15.73179985,0.0004308,53.2144,331.0786,7.7013,334.5173,0.00014806,0.00020197,0.0,0 STARLINK-5179,1 54102U 22136BD  22329.33334491  .00020197  00000-0  14806-3 0  9995,2 54102  53.2144 331.0786 0004308   7.7013 334.5173 15.73179985  6124,6727.9519999999975,91.534,352.716,346.9190000000001,0.0
54102.0,STARLINK-5179,PAYLOAD,2022-11-25 14:00:01,15.73205619,0.0004337,53.2139,329.8411,6.347,312.5516,0.00027047,0.00037531,0.0,0 STARLINK-5179,1 54102U 22136BD  22329.58334491  .00037531  00000-0  27047-3 0  9993,2 54102  53.2139 329.8411 0004337   6.3470 312.5516 15.73205619  1308,6727.879,91.533,352.662,346.826,0.0
54102.0,STARLINK-5179,PAYLOAD,2022-11-25 22:00:00,15.73238525,0.0004013,53.2141,328.1897,6.8536,41.0048,-3.2086e-05,-5.135e-05,0.0,0 STARLINK-5179,1 54102U 22136BD  22329.91667824 -.00005135  00000-0 -32086-4 0  9996,2 54102  53.2141 328.1897 0004013   6.8536  41.0048 15.73238525  6211,6727.785,91.531,352.35,346.95,0.0
54102.0,STARLINK-5179,PAYLOAD,2022-11-26 14:00:01,15.73267969,0.0004186,53.2142,324.8919,2.9649,222.8431,-0.0008269,-0.00115501,0.0,0 STARLINK-5179,1 54102U 22136BD  22330.58334491 -.00115501  00000-0 -82690-3 0  9996,2 54102  53.2142 324.8919 0004186   2.9649 222.8431 15.73267969  1307,6727.701,91.529,352.3830000000001,346.75,0.0
54102.0,STARLINK-5179,PAYLOAD,2022-11-26 22:00:00,15.73177841,0.0003962,53.2147,323.2404,3.3652,311.4126,0.0001486,0.0002027,0.0,0 STARLINK-5179,1 54102U 22136BD  22330.91667824  .00020270  00000-0  14860-3 0  9992,2 54102  53.2147 323.2404 0003962   3.3652 311.4126 15.73177841  6360,6727.958000000001,91.534,352.48900000000015,347.158,0.0
54102.0,STARLINK-5179,PAYLOAD,2022-11-27 14:00:01,15.731511,0.0004188,53.2143,319.943,4.548,128.0323,1.6569e-05,1.697e-05,0.0,0 STARLINK-5179,1 54102U 22136BD  22331.58334491  .00001697  00000-0  16569-4 0  9998,2 54102  53.2143 319.9430 0004188   4.5480 128.0323 15.73151100  1300,6728.035,91.536,352.717,347.082,0.0
54102.0,STARLINK-5179,PAYLOAD,2022-11-27 22:00:00,15.73143526,0.0003927,53.2144,318.2921,5.9759,215.4732,0.00062535,0.0008788,0.0,0 STARLINK-5179,1 54102U 22136BD  22331.91667824  .00087880  00000-0  62535-3 0  9995,2 54102  53.2144 318.2921 0003927   5.9759 215.4732 15.73143526  1300,6728.056,91.536,352.56300000000016,347.279,0.0
